#cP2015  5 31  0  0  0.00000000      96 ORBIT IGb08 HLM  IGS
## 1847      0.00000000   900.00000000 57173 0.0000000000000
+   32   G01G02G03G04G05G06G07G08G09G10G11G12G13G14G15G16G17
+        G18G19G20G21G22G23G24G25G26G27G28G29G30G31G32  0  0
+          0  0  0  0  0  0  0  0  0  0  0  0  0  0  0  0  0
+          0  0  0  0  0  0  0  0  0  0  0  0  0  0  0  0  0
+          0  0  0  0  0  0  0  0  0  0  0  0  0  0  0  0  0
++         2  2  2  2  2  2  2  0  2  2  2  2  2  2  2  2  2
++         2  2  2  2  2  2  2  2  2  2  2  2  2  2  2  0  0
++         0  0  0  0  0  0  0  0  0  0  0  0  0  0  0  0  0
++         0  0  0  0  0  0  0  0  0  0  0  0  0  0  0  0  0
++         0  0  0  0  0  0  0  0  0  0  0  0  0  0  0  0  0
%c G  cc GPS ccc cccc cccc cccc cccc ccccc ccccc ccccc ccccc
%c cc cc ccc ccc cccc cccc cccc cccc ccccc ccccc ccccc ccccc
%f  1.2500000  1.025000000  0.00000000000  0.000000000000000
%f  0.0000000  0.000000000  0.00000000000  0.000000000000000
%i    0    0    0    0      0      0      0      0         0
%i    0    0    0    0      0      0      0      0         0
/* FINAL ORBIT COMBINATION FROM WEIGHTED AVERAGE OF:        
/* cod emr esa gfz grg jpl mit ngs sio                      
/* REFERENCED TO IGS TIME (IGST) AND TO WEIGHTED MEAN POLE: 
/* PCV:IGS08_1844 OL/AL:FES2004  NONE     Y  ORB:CMB CLK:CMB
*  2015  5 31  0 45  0.00000000
PG01  20379.990225   9591.393503  14173.620245     -4.919032  4  7  5 104       
PG02 -14145.731134 -22220.115131   5305.092290    569.089422  8  8  8  99       
PG03  16094.168309   -584.400622  21141.706954    339.936954  4  7  3 108       
PG04  19711.875316  16973.553172   5698.462183    -16.975526  7  6  5  96       
PG05  -6268.400599 -19035.374110 -17384.577330   -235.202944  7  6  5 123       
PG06  -1744.593932 -20565.486198  16723.822625    173.251826  5  5  8 118       
PG07  15312.526144  -4032.942125 -21279.391261    465.602304  9  7  8 106       
PG08  -7208.277016  25125.954814  -4110.740243 999999.999999
PG09  25234.919006  -7178.325914  -4218.546408   -164.089144 10  7  9  87       
PG10   8447.868177 -24903.352870  -1632.876295   -177.047730  8  7  9 117       
PG11  24107.823760   9867.614321   4981.542123   -581.784018  7  8  5 105       
PG12 -14342.102674  -3254.079433  22000.041722    297.372760 10  8  7  93       
PG13 -12431.265601 -12821.018889 -19762.509590   -119.089484  7  7  8 120       
PG14 -11906.309751  14257.441037  19165.860654     59.594151  8  7  6 106       
PG15 -22609.091810  -5277.860043 -13272.914169   -252.236525 10  8 10  53       
PG16   4075.212782  19165.800711 -17822.531633   -123.862904  7  5  7 108       
PG17  11827.145871 -14458.124218  19095.561537   -173.676046  8  8  7 115       
PG18 -15004.145186  18876.180867 -10293.283206    405.557723 10  8  6 111       
PG19  20470.731796   8915.580923 -14928.814356   -511.995823  8  8  8 102       
PG20 -11894.018400 -12937.951474 -20095.808144    325.012726  8  7  9 131       
PG21 -14180.262921   6935.680224 -20690.816007   -450.931625  3  7  6 110       
PG22  -8745.765750  24976.611542    292.098522    355.880056  8  5  6 116       
PG23  26151.529401    242.237012   5974.802275   -111.762326  9  9  5 115       
PG24 -20786.116494 -11717.151180  11781.191005    -49.155475  3  9  5 127       
PG25 -16681.081693  10887.936108  17384.300682    -34.647121  6  8  5 114       
PG26  -2617.022837  24829.335771  -9061.349335     30.684769  6  8  9 101       
PG27  10193.626496  12909.187946 -20896.197340     75.705852 10  9 10 114       
PG28  12704.173961 -23021.437085  -2761.888233    443.476016 10  8  8 107       
PG29 -26011.648077   4534.971179  -2602.578736    613.729167 11  6  7 128       
PG30   7661.567989 -14666.580046 -20774.771006    -51.734993  8  5  7  89       
PG31   4146.660268  21742.145695  14554.094138    314.369419  8  6  4 123       
PG32   8987.453022  14894.819545  20189.884688   -137.779544  7  8  4  91       
*  2015  5 31  1  0  0.00000000
PG01  21207.127756  10848.258291  11894.743148     -4.918591  4  7  5  97       
PG02 -13473.927923 -21875.873350   7959.204644    569.091181  8  8  7 112       
PG03  15339.533589   1740.726140  21630.530227    339.944633  4  7  3 112       
PG04  19848.027127  17562.416798   2958.677626    -16.976969  7  6  6  93       
PG05  -5477.458091 -20760.625083 -15560.625951   -235.198953  7  6  5 128       
PG06   -310.886775 -19149.964113  18407.402651    173.259929  5  6  7 104       
PG07  16800.850629  -2150.852022 -20450.105840    465.604133  9  7  8 105       
PG08  -7501.085062  25322.160056  -1218.455114 999999.999999
PG09  25599.745493  -6985.705385  -1393.651920   -164.093839  9  7  8  89       
PG10   8767.710224 -24772.882757   1208.016159   -177.048263  8  7  9 117       
PG11  24313.284789  10478.268951   2316.729479   -581.786520  7  7  5  95       
PG12 -13418.591054  -5620.270934  22123.918480    297.375663  9  8  7  93       
PG13 -10149.914589 -13093.374053 -20874.859724   -119.092189  6  6  8 133       
PG14 -13970.369587  14365.704756  17594.397274     59.591906  8  7  6  94       
PG15 -21090.511029  -5881.591327 -15341.072428   -252.238576  9  8 10 100       
PG16   3212.299130  20891.349981 -15919.205113   -123.859268  7  4  7 114       
PG17  13866.477958 -14633.630166  17479.360727   -173.677688  9  8  6 115       
PG18 -14891.257561  17443.937776 -12635.852928    405.560624 10  8  6 120       
PG19  18721.286917   9215.258629 -16895.690170   -511.996809  7  7  8 118       
PG20 -11191.833517 -15041.117045 -18986.567735    325.015943  8  6  8 135       
PG21 -15795.613832   5045.588952 -20111.608399   -450.934757  5  7  6 117       
PG22  -9057.982694  24715.939041  -2492.046378    355.883817  8  6  6 121       
PG23  25401.655328    626.864909   8617.104625   -111.764314  9  9  4 110       
PG24 -21420.931817 -12771.447765   9308.573662    -49.157133  2  9  5 124       
PG25 -16115.468764   8859.853854  19000.602470    -34.650634  5  8  5 100       
PG26  -3129.984753  25587.634769  -6393.033669     30.684576  5  7  9 103       
PG27   7827.611481  13429.174903 -21568.071840     75.708254 10  9 10 122       
PG28  12659.171312 -22442.460698  -5625.111842    443.478428  9  8  8 119       
PG29 -26176.460785   4333.572841    277.613516    613.731303 11  6  6 122       
PG30   9157.558898 -12770.758624 -21417.503654    -51.729551  8  5  7 106       
PG31   2898.521701  20474.363062  16600.377553    314.368358  8  6  3 110       
PG32   7999.145688  16905.098998  19037.811613   -137.771149  7  7  5 105       
*  2015  5 31  1 15  0.00000000
PG01  21912.209687  11865.535581   9412.640000     -4.918131  4  7  5 101       
PG02 -12580.322952 -21365.617105  10481.417814    569.093675  6  7  7 112       
PG03  14697.246364   4135.209037  21747.769230    339.952282  4  8  3 108       
PG04  19793.968300  17922.427669    168.544653    -16.978255  7  7  6  87       
PG05  -4830.479112 -22310.221503 -13467.585075   -235.195118  7  5  4 119       
PG06   1315.944612 -17688.183848  19774.364513    173.268017  4  6  7 108       
PG07  18308.099840   -437.787755 -19268.668158    465.606479  9  6  8 102       
PG08  -7689.139766  25216.466838   1695.073991 999999.999999
PG09  25663.547186  -6731.093280   1455.194411   -164.098580  9  7  7  78       
PG10   9006.360566 -24346.349259   4027.471004   -177.049150  7  7  8 110       
PG11  24275.762605  10942.754503   -387.935301   -581.788642  6  7  5 103       
PG12 -12633.074765  -8025.261036  21863.602694    297.378647  8  8  6  89       
PG13  -7784.007513 -13504.188643 -21631.625790   -119.095162  6  5  7 121       
PG14 -15837.473758  14549.580520  15723.777452     59.589350  8  7  7 103       
PG15 -19394.709668  -6622.505525 -17150.341669   -252.240244  9  7 10 103       
PG16   2522.757732  22444.782213 -13738.860140   -123.855620  7  4  7 113       
PG17  15702.183462 -14878.090790  15566.484622   -173.679323  9  7  6 114       
PG18 -14779.612744  15758.389401 -14751.505697    405.563102  9  8  6 117       
PG19  16787.909973   9642.902614 -18581.064605   -511.998096  6  7  7 108       
PG20 -10617.048924 -17037.317642 -17555.094103    325.019167  7  6  8 133       
PG21 -17430.113724   3298.798567 -19166.324810   -450.938081  6  7  7 115       
PG22  -9304.185419  24166.614307  -5232.695723    355.887597  8  6  6 118       
PG23  24394.061570   1119.216124  11115.528311   -111.766398  8  9  3 114       
PG24 -21904.247286 -13588.600340   6676.813120    -49.158052  2  9  5 121       
PG25 -15616.681121   6645.248893  20285.593424    -34.654140  5  8  5  95       
PG26  -3520.639128  26074.419853  -3614.673248     30.684380  5  6  8 121       
PG27   5438.341152  14088.773623 -21869.891892     75.710656  9  8  9 112       
PG28  12542.213154 -21554.426802  -8389.394869    443.480949  9  9  8 120       
PG29 -26031.552079   4077.228247   3153.017461    613.733176 11  6  6 122       
PG30  10781.827417 -10915.041776 -21691.885036    -51.724154  8  5  6  97       
PG31   1440.179417  19118.057855  18359.626996    314.367443  8  6  3 118       
PG32   7167.381769  18820.629253  17562.766948   -137.762709  6  7  5  94       
EOF
